{"fetched_at":"2026-03-30T06:02:59Z","count":15439,"tles":[{"name":"STARLINK-30883","line1":"1 58252U 23171Y   26087.56574796 -.00001024  00000+0 -28463-4 0  9993","line2":"2 58252  43.0043 178.4153 0002800 255.3392 104.7149 15.26746424132627","category":"Starlink"}]}